ONEWEB-0414             
1 50491U 21132Y   24338.59500217  .00000011  00000+0 -60776-5 0  9990
2 50491  87.9105  86.9897 0001885  97.3943 262.7403 13.18686188147742
ONEWEB-0417             
1 50492U 21132Z   24338.60290960  .00000048  00000+0  88232-4 0  9999
2 50492  87.9112  87.0028 0001704 108.9110 251.2207 13.18687516147723
ONEWEB-0418             
1 50493U 21132AA  24338.53638057  .00000178  00000+0  41782-3 0  9997
2 50493  87.9107  87.0125 0002006 113.9522 246.1820 13.18687134147770
ONEWEB-0419             
1 50494U 21132AB  24338.55388789  .00000122  00000+0  27651-3 0  9992
2 50494  87.9105  87.0201 0001560 116.2602 243.8690 13.18684686147692
ONEWEB-0420             
1 50495U 21132AC  24338.59657129  .00000083  00000+0  17679-3 0  9999
2 50495  87.9107  87.0206 0001481  92.5978 267.5324 13.18688320147690
ONEWEB-0421             
1 50496U 21132AD  24338.59024993  .00000063  00000+0  12693-3 0  9996
2 50496  87.9112  87.0005 0001908  96.4664 263.6686 13.18688330147737
ONEWEB-0424             
1 50497U 21132AE  24338.39740384  .00000063  00000+0  12639-3 0  9994
2 50497  87.9108  87.0367 0001393 119.5622 240.5649 13.18685158147731
ONEWEB-0426             
1 50498U 21132AF  24338.58709233  .00000116  00000+0  26211-3 0  9994
2 50498  87.9103  87.0096 0002246 107.0733 253.0646 13.18687563147704
